[{"OBJECT_NAME":"STARLINK-2266","OBJECT_ID":"2021-024W","EPOCH":"2026-03-05T02:41:11.112288","MEAN_MOTION":15.30215388,"ECCENTRICITY":0.0001071,"INCLINATION":53.1602,"RA_OF_ASC_NODE":328.0148,"ARG_OF_PERICENTER":102.4438,"MEAN_ANOMALY":257.6682,"EPHEMERIS_TYPE":0,"CLASSIFICATION_TYPE":"U","NORAD_CAT_ID":47997,"ELEMENT_SET_NO":999,"REV_AT_EPOCH":27428,"BSTAR":0.00032336,"MEAN_MOTION_DOT":9.234e-5,"MEAN_MOTION_DDOT":0},{"OBJECT_NAME":"STARLINK-2270","OBJECT_ID":"2021-024Z","EPOCH":"2026-03-05T04:00:01.999584","MEAN_MOTION":15.10256334,"ECCENTRICITY":9.31e-5,"INCLINATION":53.0677,"RA_OF_ASC_NODE":262.0886,"ARG_OF_PERICENTER":73.9153,"MEAN_ANOMALY":358.6223,"EPHEMERIS_TYPE":0,"CLASSIFICATION_TYPE":"U","NORAD_CAT_ID":48000,"ELEMENT_SET_NO":999,"REV_AT_EPOCH":562,"BSTAR":0.00093013,"MEAN_MOTION_DOT":0.00015133,"MEAN_MOTION_DDOT":0},{"OBJECT_NAME":"STARLINK-2153","OBJECT_ID":"2021-024AJ","EPOCH":"2026-03-04T18:33:35.591040","MEAN_MOTION":15.30201348,"ECCENTRICITY":0.0001112,"INCLINATION":53.1594,"RA_OF_ASC_NODE":332.2329,"ARG_OF_PERICENTER":94.0539,"MEAN_ANOMALY":266.0588,"EPHEMERIS_TYPE":0,"CLASSIFICATION_TYPE":"U","NORAD_CAT_ID":48009,"ELEMENT_SET_NO":999,"REV_AT_EPOCH":27414,"BSTAR":0.00032812,"MEAN_MOTION_DOT":9.371e-5,"MEAN_MOTION_DDOT":0},{"OBJECT_NAME":"STARLINK-2226","OBJECT_ID":"2021-024AK","EPOCH":"2026-03-05T04:00:01.999584","MEAN_MOTION":15.30150432,"ECCENTRICITY":0.000118,"INCLINATION":53.1595,"RA_OF_ASC_NODE":353.4332,"ARG_OF_PERICENTER":88.5178,"MEAN_ANOMALY":346.5567,"EPHEMERIS_TYPE":0,"CLASSIFICATION_TYPE":"U","NORAD_CAT_ID":48010,"ELEMENT_SET_NO":999,"REV_AT_EPOCH":574,"BSTAR":0.0014682,"MEAN_MOTION_DOT":0.00043312,"MEAN_MOTION_DDOT":0},{"OBJECT_NAME":"STARLINK-2285","OBJECT_ID":"2021-024AU","EPOCH":"2026-03-04T23:54:20.072160","MEAN_MOTION":15.30213204,"ECCENTRICITY":0.0001337,"INCLINATION":53.1614,"RA_OF_ASC_NODE":328.6649,"ARG_OF_PERICENTER":83.7319,"MEAN_ANOMALY":276.3834,"EPHEMERIS_TYPE":0,"CLASSIFICATION_TYPE":"U","NORAD_CAT_ID":48019,"ELEMENT_SET_NO":999,"REV_AT_EPOCH":27420,"BSTAR":0.00019751,"MEAN_MOTION_DOT":5.497e-5,"MEAN_MOTION_DDOT":0},{"OBJECT_NAME":"STARLINK-2298","OBJECT_ID":"2021-024AX","EPOCH":"2026-03-05T04:00:01.999584","MEAN_MOTION":15.11273109,"ECCENTRICITY":0.0001811,"INCLINATION":53.0732,"RA_OF_ASC_NODE":352.1331,"ARG_OF_PERICENTER":63.9081,"MEAN_ANOMALY":33.4862,"EPHEMERIS_TYPE":0,"CLASSIFICATION_TYPE":"U","NORAD_CAT_ID":48022,"ELEMENT_SET_NO":999,"REV_AT_EPOCH":574,"BSTAR":0.0043015,"MEAN_MOTION_DOT":0.00073677,"MEAN_MOTION_DDOT":0},{"OBJECT_NAME":"STARLINK-2292","OBJECT_ID":"2021-024AY","EPOCH":"2026-03-04T17:54:52.509312","MEAN_MOTION":15.07079603,"ECCENTRICITY":6.0e-5,"INCLINATION":53.062,"RA_OF_ASC_NODE":353.803,"ARG_OF_PERICENTER":79.7422,"MEAN_ANOMALY":280.3634,"EPHEMERIS_TYPE":0,"CLASSIFICATION_TYPE":"U","NORAD_CAT_ID":48023,"ELEMENT_SET_NO":999,"REV_AT_EPOCH":27388,"BSTAR":0.010225,"MEAN_MOTION_DOT":0.00158367,"MEAN_MOTION_DDOT":0},{"OBJECT_NAME":"STARLINK-2299","OBJECT_ID":"2021-024BE","EPOCH":"2026-03-05T04:00:01.999584","MEAN_MOTION":15.11405616,"ECCENTRICITY":0.0001583,"INCLINATION":53.0738,"RA_OF_ASC_NODE":351.8315,"ARG_OF_PERICENTER":95.0448,"MEAN_ANOMALY":194.4895,"EPHEMERIS_TYPE":0,"CLASSIFICATION_TYPE":"U","NORAD_CAT_ID":48029,"ELEMENT_SET_NO":999,"REV_AT_EPOCH":566,"BSTAR":0.0043103,"MEAN_MOTION_DOT":0.00074106,"MEAN_MOTION_DDOT":0},{"OBJECT_NAME":"STARLINK-2404","OBJECT_ID":"2021-027B","EPOCH":"2026-03-05T00:18:46.568736","MEAN_MOTION":15.30207388,"ECCENTRICITY":0.0001133,"INCLINATION":53.1615,"RA_OF_ASC_NODE":176.6744,"ARG_OF_PERICENTER":95.026,"MEAN_ANOMALY":265.087,"EPHEMERIS_TYPE":0,"CLASSIFICATION_TYPE":"U","NORAD_CAT_ID":48093,"ELEMENT_SET_NO":999,"REV_AT_EPOCH":27194,"BSTAR":0.00032664,"MEAN_MOTION_DOT":9.329e-5,"MEAN_MOTION_DDOT":0},{"OBJECT_NAME":"STARLINK-2412","OBJECT_ID":"2021-027C","EPOCH":"2026-03-04T11:52:24.474144","MEAN_MOTION":15.30176324,"ECCENTRICITY":0.00014907,"INCLINATION":53.1595,"RA_OF_ASC_NODE":189.4065,"ARG_OF_PERICENTER":84.5706,"MEAN_ANOMALY":275.5465,"EPHEMERIS_TYPE":0,"CLASSIFICATION_TYPE":"U","NORAD_CAT_ID":48094,"ELEMENT_SET_NO":999,"REV_AT_EPOCH":27172,"BSTAR":0.00038212484,"MEAN_MOTION_DOT":0.00010967,"MEAN_MOTION_DDOT":0},{"OBJECT_NAME":"STARLINK-2414","OBJECT_ID":"2021-027D","EPOCH":"2026-03-04T12:07:33.881664","MEAN_MOTION":15.3020022,"ECCENTRICITY":0.00012474,"INCLINATION":53.1613,"RA_OF_ASC_NODE":189.3865,"ARG_OF_PERICENTER":104.1405,"MEAN_ANOMALY":255.9734,"EPHEMERIS_TYPE":0,"CLASSIFICATION_TYPE":"U","NORAD_CAT_ID":48095,"ELEMENT_SET_NO":999,"REV_AT_EPOCH":27173,"BSTAR":-7.985298e-6,"MEAN_MOTION_DOT":-5.96e-6,"MEAN_MOTION_DDOT":0},{"OBJECT_NAME":"STARLINK-2417","OBJECT_ID":"2021-027E","EPOCH":"2026-03-04T12:12:11.650752","MEAN_MOTION":15.30187304,"ECCENTRICITY":0.0001088,"INCLINATION":53.1621,"RA_OF_ASC_NODE":189.6662,"ARG_OF_PERICENTER":85.3752,"MEAN_ANOMALY":274.7373,"EPHEMERIS_TYPE":0,"CLASSIFICATION_TYPE":"U","NORAD_CAT_ID":48096,"ELEMENT_SET_NO":999,"REV_AT_EPOCH":27171,"BSTAR":2.8635e-5,"MEAN_MOTION_DOT":4.89e-6,"MEAN_MOTION_DDOT":0},{"OBJECT_NAME":"STARLINK-2418","OBJECT_ID":"2021-027F","EPOCH":"2026-03-05T00:25:38.015040","MEAN_MOTION":15.06412661,"ECCENTRICITY":0.0001246,"INCLINATION":53.0554,"RA_OF_ASC_NODE":172.5917,"ARG_OF_PERICENTER":86.6386,"MEAN_ANOMALY":273.4745,"EPHEMERIS_TYPE":0,"CLASSIFICATION_TYPE":"U","NORAD_CAT_ID":48097,"ELEMENT_SET_NO":999,"REV_AT_EPOCH":27199,"BSTAR":-0.00015783,"MEAN_MOTION_DOT":-2.632e-5,"MEAN_MOTION_DDOT":0},{"OBJECT_NAME":"STARLINK-2421","OBJECT_ID":"2021-027G","EPOCH":"2026-03-04T17:27:41.136480","MEAN_MOTION":15.30201348,"ECCENTRICITY":0.0001287,"INCLINATION":53.1602,"RA_OF_ASC_NODE":177.9911,"ARG_OF_PERICENTER":106.3094,"MEAN_ANOMALY":253.8048,"EPHEMERIS_TYPE":0,"CLASSIFICATION_TYPE":"U","NORAD_CAT_ID":48098,"ELEMENT_SET_NO":999,"REV_AT_EPOCH":27189,"BSTAR":7.6795e-5,"MEAN_MOTION_DOT":1.916e-5,"MEAN_MOTION_DDOT":0},{"OBJECT_NAME":"STARLINK-2428","OBJECT_ID":"2021-027H","EPOCH":"2026-03-05T01:33:55.857312","MEAN_MOTION":15.30186659,"ECCENTRICITY":0.0001261,"INCLINATION":53.1627,"RA_OF_ASC_NODE":189.2703,"ARG_OF_PERICENTER":82.1232,"MEAN_ANOMALY":277.9912,"EPHEMERIS_TYPE":0,"CLASSIFICATION_TYPE":"U","NORAD_CAT_ID":48099,"ELEMENT_SET_NO":999,"REV_AT_EPOCH":27176,"BSTAR":-1.9989e-5,"MEAN_MOTION_DOT":-9.51e-6,"MEAN_MOTION_DDOT":0},{"OBJECT_NAME":"STARLINK-2430","OBJECT_ID":"2021-027J","EPOCH":"2026-03-05T00:15:02.160288","MEAN_MOTION":15.06384249,"ECCENTRICITY":0.0001034,"INCLINATION":53.0561,"RA_OF_ASC_NODE":172.6236,"ARG_OF_PERICENTER":94.6493,"MEAN_ANOMALY":265.4614,"EPHEMERIS_TYPE":0,"CLASSIFICATION_TYPE":"U","NORAD_CAT_ID":48100,"ELEMENT_SET_NO":999,"REV_AT_EPOCH":27199,"BSTAR":-0.00019265,"MEAN_MOTION_DOT":-3.148e-5,"MEAN_MOTION_DDOT":0},{"OBJECT_NAME":"STARLINK-2436","OBJECT_ID":"2021-027K","EPOCH":"2026-03-04T17:24:38.573280","MEAN_MOTION":15.30195825,"ECCENTRICITY":7.0e-5,"INCLINATION":53.1609,"RA_OF_ASC_NODE":178.0016,"ARG_OF_PERICENTER":82.1211,"MEAN_ANOMALY":277.987,"EPHEMERIS_TYPE":0,"CLASSIFICATION_TYPE":"U","NORAD_CAT_ID":48101,"ELEMENT_SET_NO":999,"REV_AT_EPOCH":27190,"BSTAR":2.557e-5,"MEAN_MOTION_DOT":3.98e-6,"MEAN_MOTION_DDOT":0},{"OBJECT_NAME":"STARLINK-2439","OBJECT_ID":"2021-027N","EPOCH":"2026-03-05T00:05:52.437696","MEAN_MOTION":15.30200165,"ECCENTRICITY":0.0001414,"INCLINATION":53.1608,"RA_OF_ASC_NODE":174.5301,"ARG_OF_PERICENTER":103.4754,"MEAN_ANOMALY":256.6404,"EPHEMERIS_TYPE":0,"CLASSIFICATION_TYPE":"U","NORAD_CAT_ID":48104,"ELEMENT_SET_NO":999,"REV_AT_EPOCH":27197,"BSTAR":9.1938e-5,"MEAN_MOTION_DOT":2.365e-5,"MEAN_MOTION_DDOT":0},{"OBJECT_NAME":"STARLINK-2440","OBJECT_ID":"2021-027P","EPOCH":"2026-03-05T04:00:01.999584","MEAN_MOTION":15.18049062,"ECCENTRICITY":0.0001686,"INCLINATION":53.1047,"RA_OF_ASC_NODE":121.6818,"ARG_OF_PERICENTER":109.6844,"MEAN_ANOMALY":47.8767,"EPHEMERIS_TYPE":0,"CLASSIFICATION_TYPE":"U","NORAD_CAT_ID":48105,"ELEMENT_SET_NO":999,"REV_AT_EPOCH":562,"BSTAR":0.066228,"MEAN_MOTION_DOT":0.01496809,"MEAN_MOTION_DDOT":0},{"OBJECT_NAME":"STARLINK-2442","OBJECT_ID":"2021-027Q","EPOCH":"2026-03-05T00:20:21.029856","MEAN_MOTION":15.06389995,"ECCENTRICITY":0.0001366,"INCLINATION":53.0557,"RA_OF_ASC_NODE":172.6192,"ARG_OF_PERICENTER":83.749,"MEAN_ANOMALY":276.3655,"EPHEMERIS_TYPE":0,"CLASSIFICATION_TYPE":"U","NORAD_CAT_ID":48106,"ELEMENT_SET_NO":999,"REV_AT_EPOCH":27199,"BSTAR":0.00014539,"MEAN_MOTION_DOT":1.884e-5,"MEAN_MOTION_DDOT":0},{"OBJECT_NAME":"STARLINK-2443","OBJECT_ID":"2021-027R","EPOCH":"2026-03-05T00:41:34.169280","MEAN_MOTION":15.06398325,"ECCENTRICITY":0.0001263,"INCLINATION":53.0556,"RA_OF_ASC_NODE":172.5433,"ARG_OF_PERICENTER":86.9699,"MEAN_ANOMALY":273.1434,"EPHEMERIS_TYPE":0,"CLASSIFICATION_TYPE":"U","NORAD_CAT_ID":48107,"ELEMENT_SET_NO":999,"REV_AT_EPOCH":27199,"BSTAR":8.5182e-5,"MEAN_MOTION_DOT":9.88e-6,"MEAN_MOTION_DDOT":0},{"OBJECT_NAME":"STARLINK-2448","OBJECT_ID":"2021-027V","EPOCH":"2026-03-04T12:33:22.476384","MEAN_MOTION":15.30207221,"ECCENTRICITY":0.0001358,"INCLINATION":53.1617,"RA_OF_ASC_NODE":178.9414,"ARG_OF_PERICENTER":106.0191,"MEAN_ANOMALY":254.0959,"EPHEMERIS_TYPE":0,"CLASSIFICATION_TYPE":"U","NORAD_CAT_ID":48111,"ELEMENT_SET_NO":999,"REV_AT_EPOCH":27187,"BSTAR":0.00037669,"MEAN_MOTION_DOT":0.00010816,"MEAN_MOTION_DDOT":0},{"OBJECT_NAME":"STARLINK-2449","OBJECT_ID":"2021-027W","EPOCH":"2026-03-05T01:38:29.345280","MEAN_MOTION":15.30191231,"ECCENTRICITY":0.0001593,"INCLINATION":53.1618,"RA_OF_ASC_NODE":189.28,"ARG_OF_PERICENTER":82.8142,"MEAN_ANOMALY":277.304,"EPHEMERIS_TYPE":0,"CLASSIFICATION_TYPE":"U","NORAD_CAT_ID":48112,"ELEMENT_SET_NO":999,"REV_AT_EPOCH":27177,"BSTAR":9.071e-5,"MEAN_MOTION_DOT":2.327e-5,"MEAN_MOTION_DDOT":0}]
